,latitude,longitude,name,address
0,46.0603555,11.241622,Libreria Athena,"Libreria Athena, Piazza Mario Garbari, Maso Kronst, Pergine Valsugana, Comunità Alta Valsugana e Bersntol, Trento, Trentino-Alto Adige/Südtirol, 38057, Italia"
1,46.0709029,11.1258608,Libreria Einaudi,"Libreria Einaudi, 8, Piazza della Mostra, San Martino, Trento, Territorio Val d'Adige, Trento, Trentino-Alto Adige/Südtirol, 38122, Italia"
2,46.065648100000004,11.1237552,Libreria Giuffrè,"Libreria Giuffrè, 17, Seconda Androna di Borgo Nuovo, Centro storico Trento, Trento, Territorio Val d'Adige, Trento, Trentino-Alto Adige/Südtirol, 38122, Italia"
3,46.066405100000004,11.1224302,Viaggeria,"Viaggeria, 20, Via San Vigilio, Centro storico Trento, Trento, Territorio Val d'Adige, Trento, Trentino-Alto Adige/Südtirol, 38122, Italia"
4,46.066436700000004,11.1225134,Alternativa,"Alternativa, 21, Via San Vigilio, Centro storico Trento, Trento, Territorio Val d'Adige, Trento, Trentino-Alto Adige/Südtirol, 38122, Italia"
5,46.062727,11.1236388,Libreria UBIK,"Libreria UBIK, 12, Corso III Novembre, Cernidor, San Giuseppe, Trento, Territorio Val d'Adige, Trento, Trentino-Alto Adige/Südtirol, 38122, Italia"
6,46.0687855,11.1226407,Giunti al Punto,"Giunti al Punto, 47, Via Paolo Ossimo Mazzurana, Centro storico Trento, Trento, Territorio Val d'Adige, Trento, Trentino-Alto Adige/Südtirol, 38122, Italia"
7,46.064157,11.1235403,Ancora,"Ancora, 35, Via Santa Croce, Cernidor, Centro storico Trento, Trento, Territorio Val d'Adige, Trento, Trentino-Alto Adige/Südtirol, 38122, Italia"
8,45.917709499999994,10.884132800000001,Tipografia-Cartoleria-Libreria Andreatta,"Tipografia-Cartoleria-Libreria Andreatta, Via Guglielmo Marconi, Bolognano, Arco, Comunità Alto Garda e Ledro, Trento, Trentino-Alto Adige/Südtirol, 38062, Italia"
9,46.13350429999999,11.2463666,,"Condominio Costalta, Corso Roma, Gardizzola, Baselga di Piné, Comunità Alta Valsugana e Bersntol, Trento, Trentino-Alto Adige/Südtirol, 38042, Italia"
10,46.0664807,11.116435699999998,Drake,"Drake, Via Giuseppe Verdi, Piedicastello, Trento, Territorio Val d'Adige, Trento, Trentino-Alto Adige/Südtirol, 38122, Italia"
11,46.366046399999995,11.033071699999999,La Cattedra,"Grand Hotel, Via Pier Andrea Mattioli, Pez, Cles, Comunità della Val di Non, Trento, Trentino-Alto Adige/Südtirol, 38023, Italia"
12,46.067927000000005,11.1248804,Libreria Scala,"Libreria Scala, Via Roggia Grande, Centro storico Trento, Trento, Territorio Val d'Adige, Trento, Trentino-Alto Adige/Südtirol, 38122, Italia"
13,46.214076,11.0900625,Cartolibreria Jolly,"Cartolibreria Jolly, 5, Piazza Vittoria, Mezzolombardo, Comunità Rotaliana-Königsberg, Trento, Trentino-Alto Adige/Südtirol, 38017, Italia"
14,46.0679278,11.1215209,Libreria Benigni,"Libreria Benigni, 51, Via Rodolfo Belenzani, Centro storico Trento, Trento, Territorio Val d'Adige, Trento, Trentino-Alto Adige/Südtirol, 38122, Italia"
15,46.067984499999994,11.223913699999999,Giunti,"Shop Center Valsugana, Via Tamarisi, Maso Popper, Pergine Valsugana, Comunità Alta Valsugana e Bersntol, Trento, Trentino-Alto Adige/Südtirol, 38057, Italia"
16,46.069780200000004,11.124505599999999,Mondadori,"Mondadori, 17, Via San Pietro, Centro storico Trento, Trento, Territorio Val d'Adige, Trento, Trentino-Alto Adige/Südtirol, 38122, Italia"
17,45.9290266,11.0708839,Tabaccheria Giornali,"Tabaccheria Giornali, Via Isidoro Paissani, Nomi, Comunità della Vallagarina, Trento, Trentino-Alto Adige/Südtirol, 39068, Italia"
18,46.0941511,11.1151098,Giunti al Punto,"Giunti al Punto, 16, Via Giovanni Battista Trener, Piazzina, zona commerciale via Brennero, Trento, Territorio Val d'Adige, Trento, Trentino-Alto Adige/Südtirol, 38121, Italia"
19,46.0729934,11.126505900000002,Bookique,"Bookique, 29, Via Torre D'Augusto, San Martino, Trento, Territorio Val d'Adige, Trento, Trentino-Alto Adige/Südtirol, 38122, Italia"
20,46.142948499999996,10.9659886,,"UniCredit, 5, Via Cima Tosa, Molveno, Comunità della Paganella, Trento, Trentino-Alto Adige/Südtirol, 38018, Italia"
21,45.8696277,10.8757222,Tabacchi,"Tabacchi, Via Benaco, Nago-Torbole, Comunità Alto Garda e Ledro, Trento, Trentino-Alto Adige/Südtirol, 38069, Italia"
22,45.8908446,11.041986,Biblioteca Rosminiana,"Biblioteca Rosminiana, Corso Antonio Rosmini, Santa Maria, Rovereto, Comunità della Vallagarina, Trento, Trentino-Alto Adige/Südtirol, 38068, Italia"
23,46.138358399999994,11.1149916,La Pulce d'Acqua,"La Pulce d'Acqua, 7, Via Roma, Maso Ingran, Lavis, Comunità Rotaliana-Königsberg, Trento, Trentino-Alto Adige/Südtirol, 38015, Italia"
24,46.072730299999996,11.125248800000001,Rileggo,"Rileggo, 64, Via San Martino, San Martino, Trento, Territorio Val d'Adige, Trento, Trentino-Alto Adige/Südtirol, 38122, Italia"
25,46.072516,11.1252034,due punti libreria laboratorio,"due punti libreria laboratorio, 78, Via San Martino, San Martino, Trento, Territorio Val d'Adige, Trento, Trentino-Alto Adige/Südtirol, 38122, Italia"
26,46.175764,11.829336,Mostra del libro,"Mostra del libro, Via Angelo Guadagnini, Fiera di Primiero, Primiero San Martino di Castrozza, Comunità di Primiero, Trento, Trentino-Alto Adige/Südtirol, 38054, Italia"
27,45.886365500000004,10.841911900000001,Libreria Giunti,"Libreria Giunti, 7, Viale Roma, Riva del Garda, Comunità Alto Garda e Ledro, Trento, Trentino-Alto Adige/Südtirol, 38066, Italia"
28,46.0644622,11.1205835,Studio Bibliografico Adige,"Studio Bibliografico Adige, 22, Via del Travai, Centro storico Trento, Trento, Territorio Val d'Adige, Trento, Trentino-Alto Adige/Südtirol, 38122, Italia"
29,45.8861155,10.8408306,Studio Bibliografico Benacense,"Studio Bibliografico Benacense, Galleria San Giuseppe, Riva del Garda, Comunità Alto Garda e Ledro, Trento, Trentino-Alto Adige/Südtirol, 38066, Italia"
30,45.8894126,11.0446363,io e libri siamo qui,"io e libri siamo qui, 43, Via Rialto, Santa Maria, Rovereto, Comunità della Vallagarina, Trento, Trentino-Alto Adige/Südtirol, 38068, Italia"
31,46.011513799999996,11.301361,La Piccola Libreria,"La Piccola Libreria, 26, Via Regia, Levico Terme, Comunità Alta Valsugana e Bersntol, Trento, Trentino-Alto Adige/Südtirol, 38056, Italia"
32,45.8899949,11.0435438,Eden Librerie,"Eden Librerie, 5, Via Roma, Santa Maria, Rovereto, Comunità della Vallagarina, Trento, Trentino-Alto Adige/Südtirol, 38068, Italia"
33,46.2626416,11.8027117,,"Hotel Margherita, Via Passo Rolle, San Martino di Castrozza, Primiero San Martino di Castrozza, Comunità di Primiero, Trento, Trentino-Alto Adige/Südtirol, Italia"
34,45.8901492,11.0421358,Giunti al Punto,"Giunti al Punto, 3, Via delle Scuole, Santa Maria, Rovereto, Comunità della Vallagarina, Trento, Trentino-Alto Adige/Südtirol, 38068, Italia"
35,46.053970899999996,11.4561987,Libreria Il Ponte,"Libreria Il Ponte, 76, Via Cesare Battisti, Crosetta, Cimondè, Borgo Valsugana, Comunità Valsugana e Tesino, Trento, Trentino-Alto Adige/Südtirol, 38051, Italia"
36,46.0532164,11.4588228,Libreria Tecnica,"Libreria Tecnica, 12, Via Brigata Venezia, Crosetta, Cimondè, Borgo Valsugana, Comunità Valsugana e Tesino, Trento, Trentino-Alto Adige/Südtirol, 38051, Italia"
37,46.0445046,11.129986800000001,Libreria dell'usato Scambi D'Autore,"Libreria dell'usato Scambi D'Autore, 77, Via Alcide Degasperi, Man Malpensada, Madonna Bianca, Trento, Territorio Val d'Adige, Trento, Trentino-Alto Adige/Südtirol, 38123, Italia"
38,46.0640454,11.233578,,"master, Via Pascoli, Maso Kronst, Pergine Valsugana, Comunità Alta Valsugana e Bersntol, Trento, Trentino-Alto Adige/Südtirol, 38057, Italia"
39,46.3027368,11.4561351,Giornali e Tabacchi Defrancesco Angela,"Giornali e Tabacchi Defrancesco Angela, Via Luigi Delvai, Varena, Comunità territoriale della Val di Fiemme, Trento, Trentino-Alto Adige/Südtirol, 38033, Italia"
40,46.071929700000005,11.125183400000001,Sogni di Carta,"Palazzo Trautmannsdorf, Via del Suffragio, San Martino, Trento, Territorio Val d'Adige, Trento, Trentino-Alto Adige/Südtirol, 38122, Italia"
41,45.919429799999996,10.886257800000001,Libreria Cartoleria Cazzaniga,"Libreria Cartoleria Cazzaniga, 107, Via Giovanni Segantini, Bolognano, Arco, Comunità Alto Garda e Ledro, Trento, Trentino-Alto Adige/Südtirol, 38062, Italia"
