,latitude,longitude,name,address
0,46.12793370000001,11.2439515,,"Poliambulatorio comunale - Medici Generici - Pediatri - Guardia Medica, Via del 26 maggio, Gardizzola, Baselga di Piné, Comunità Alta Valsugana e Bersntol, Trento, Trentino-Alto Adige/Südtirol, 38042, Italia"
1,46.0769744,11.141749,Biblioteca Comunale Argentario,"Biblioteca Comunale Argentario, 2, Piazza dell'Argentario, Marnighe, Trento, Territorio Val d'Adige, Trento, Trentino-Alto Adige/Südtirol, 38121, Italia"
2,46.1921462,11.1341466,Biblioteca Comunale di San Michele all'Adige,"Biblioteca Comunale di San Michele all'Adige, 1, Via Francesco Biasi, Grumino, San Michele all'Adige, Comunità Rotaliana-Königsberg, Trento, Trentino-Alto Adige/Südtirol, 38010, Italia"
3,46.314765799999996,10.7962657,Mezzana,"Mezzana, Via dei Stabli, Mezzana, Comunità della Valle di Sole, Trento, Trentino-Alto Adige/Südtirol, Italia"
4,46.0109924,11.302581800000002,Biblioteca Comunale,"Biblioteca Comunale, Via Guglielmo Marconi, Levico Terme, Comunità Alta Valsugana e Bersntol, Trento, Trentino-Alto Adige/Südtirol, 38056, Italia"
5,45.9408157,11.270777,Biblioteca 'Sigmund Freud',"Biblioteca  Sigmund Freud, Frazione Gionghi, Lavarone, Magnifica Comunità degli Altipiani Cimbri, Trento, Trentino-Alto Adige/Südtirol, 38046, Italia"
6,46.35205560000001,10.691758,Biblioteca comunale,"Biblioteca comunale, Via Ettore Colombo, Peio, Comunità della Valle di Sole, Trento, Trentino-Alto Adige/Südtirol, 38024, Italia"
7,46.142695399999994,10.964116800000001,,"2, Piazza Scuole, Molveno, Comunità della Paganella, Trento, Trentino-Alto Adige/Südtirol, 38018, Italia"
8,46.051627200000006,11.1277538,Biblioteca Clarina,"Biblioteca Clarina, 2/1, Via la Clarina, Man Malpensada, Clarina, Trento, Territorio Val d'Adige, Trento, Trentino-Alto Adige/Südtirol, 38123, Italia"
9,46.0604948,11.2390306,Sala Maier,"Sala Maier, Vicolo della Roggia, Maso Kronst, Pergine Valsugana, Comunità Alta Valsugana e Bersntol, Trento, Trentino-Alto Adige/Südtirol, 38057, Italia"
10,45.8491507,10.578778300000002,Biblioteca comunale Nino Scaglia,"Biblioteca comunale Nino Scaglia, Piazza Fiorindo Malfer, Storo, Comunità delle Giudicarie, Trento, Trentino-Alto Adige/Südtirol, 38089, Italia"
11,46.1754862,11.2212842,Biblioteca Palazzo Maffei,"Palazzo Maffei, Vicolo Maffei, Cembra Lisignago, Comunità della Valle di Cembra, Trento, Trentino-Alto Adige/Südtirol, 38047, Italia"
12,46.1380999,11.113636099999999,,"Biblioteca Comunale, Piazzetta degli Alpini, Maso Ingran, Lavis, Comunità Rotaliana-Königsberg, Trento, Trentino-Alto Adige/Südtirol, 38015, Italia"
13,46.3952797,11.121074,Biblioteca Don Fabio Fattor,"Biblioteca Don Fabio Fattor, Via Mario Zucali, Romeno, Comunità della Val di Non, Trento, Trentino-Alto Adige/Südtirol, 38011, Italia"
14,46.1763325,11.8302203,Biblioteca Intercomunale Di Primiero,"Biblioteca Intercomunale Di Primiero, 6, Via Fiume, Fiera di Primiero, Primiero San Martino di Castrozza, Comunità di Primiero, Trento, Trentino-Alto Adige/Südtirol, 38054, Italia"
15,45.8175528,10.9540848,Biblioteca,"Biblioteca, Via F. Roberti, Tognotti, Brentonico, Comunità della Vallagarina, Trento, Trentino-Alto Adige/Südtirol, 38065, Italia"
16,45.80837460000001,10.5405423,,"Via di Mezzo, Bondone, Comunità delle Giudicarie, Trento, Trentino-Alto Adige/Südtirol, 38089, Italia"
17,46.0663863,11.1305997,Il papiro,"Il papiro, 35, Via Giuseppe Grazioli, Cernidor, Centro storico Trento, Trento, Territorio Val d'Adige, Trento, Trentino-Alto Adige/Südtirol, 38122, Italia"
18,45.920421399999995,10.8888687,Biblioteca di Arco,"Biblioteca di Arco, Via Giovanni Segantini, Bolognano, Arco, Comunità Alto Garda e Ledro, Trento, Trentino-Alto Adige/Südtirol, 38062, Italia"
19,46.0886643,11.1818205,,"Ecomuseo Argentario, Via Roma, Civezzano, Comunità Alta Valsugana e Bersntol, Trento, Trentino-Alto Adige/Südtirol, 38045, Italia"
20,46.1832646,11.028131,Biblioteca Comunale di Cavedago,"Biblioteca Comunale di Cavedago, Strada Statale dei Laghi di Molveno e Tenno, Cavedago, Comunità della Paganella, Trento, Trentino-Alto Adige/Südtirol, 38018, Italia"
21,45.9356343,11.0937547,Biblioteca di Calliano,"Biblioteca di Calliano, Via Alcide Degasperi, Calliano, Comunità della Vallagarina, Trento, Trentino-Alto Adige/Südtirol, Italia"
22,46.26380579999999,11.3384514,Casa della Lettura,"Casa della Lettura, Via Pietro dal Campo, Capriana, Comunità territoriale della Val di Fiemme, Trento, Trentino-Alto Adige/Südtirol, 38048, Italia"
23,45.8852272,10.841423800000001,Biblioteca Comunale,"Biblioteca Comunale, Piazza Giuseppe Garibaldi, Riva del Garda, Comunità Alto Garda e Ledro, Trento, Trentino-Alto Adige/Südtirol, 38066, Italia"
24,46.476649,11.773004400000001,,"La Montanara, SS48, Canazei, Comun General de Fascia, Trento, Trentino-Alto Adige/Südtirol, 38032, Italia"
25,46.2134435,11.091615800000001,,"2, Via Francesco Filos, Mezzolombardo, Comunità Rotaliana-Königsberg, Trento, Trentino-Alto Adige/Südtirol, 38017, Italia"
26,46.248512299999994,11.169924900000002,Biblioteca Comunale,"Biblioteca Comunale, 5, Via Antonio Rosmini, Roverè della Luna, Comunità Rotaliana-Königsberg, Trento, Trentino-Alto Adige/Südtirol, 38030, Italia"
27,46.265197799999996,11.0859918,,"4, Piazza Francesco Guardi, Ton, Comunità della Val di Non, Trento, Trentino-Alto Adige/Südtirol, 38010, Italia"
28,45.8694883,11.0732759,,"Trambileno, Comunità della Vallagarina, Trento, Trentino-Alto Adige/Südtirol, 38068, Italia"
29,46.064353000000004,11.139099,Biblioteca di Ingegneria,"Biblioteca di Ingegneria, 77, Via Mesiano, Cernidor, Bolghera, Trento, Territorio Val d'Adige, Trento, Trentino-Alto Adige/Südtirol, 38121, Italia"
30,46.0060602,11.1278038,Biblioteca comunale / Sede di Mattarello,"Biblioteca comunale / Sede di Mattarello, 6, Via Guido Poli, Maso Pez, Trento, Territorio Val d'Adige, Trento, Trentino-Alto Adige/Südtirol, 38128, Italia"
31,46.33724960000001,11.1151496,,"Via Pluode, Sfruz, Comunità della Val di Non, Trento, Trentino-Alto Adige/Südtirol, 38012, Italia"
32,45.9280506,11.0705273,,"Nomi, Comunità della Vallagarina, Trento, Trentino-Alto Adige/Südtirol, 39068, Italia"
33,46.0627443,11.1242907,Biblioteche dell'Istituto Storico Italo-Germanico e del Centro per le Scienze Religiose,"Biblioteche dell'Istituto Storico Italo-Germanico e del Centro per le Scienze Religiose, Corso III Novembre, Cernidor, San Giuseppe, Trento, Territorio Val d'Adige, Trento, Trentino-Alto Adige/Südtirol, 38122, Italia"
34,46.217750200000005,11.0465207,,"Via Don G.Maurina, Maso Trentini, Spormaggiore, Comunità della Paganella, Trento, Trentino-Alto Adige/Südtirol, 38010, Italia"
35,46.1561601,11.731898,Biblioteca comunale,"Biblioteca comunale, SP79, Col dei Betteghe, Canal San Bovo, Comunità di Primiero, Trento, Trentino-Alto Adige/Südtirol, Italia"
36,46.1171564,11.2074635,Biblioteca,"Biblioteca, Via del Borgolét, Fornace, Comunità Alta Valsugana e Bersntol, Trento, Trentino-Alto Adige/Südtirol, 38041, Italia"
37,45.884634999999996,11.008366,Biblioteca Comunale,"Biblioteca Comunale, Via Cesare Cavalieri, Isera, Comunità della Vallagarina, Trento, Trentino-Alto Adige/Südtirol, 38068, Italia"
38,46.297574700000006,10.6952416,,"Il Museo della Guerra Bianca di Vermiglio, 15, Via en Fin, Vermiglio, Comunità della Valle di Sole, Trento, Trentino-Alto Adige/Südtirol, 38020, Italia"
39,45.9409745,10.6389686,Biblioteca Comunale,"Istituto Comprensivo del Chiese Don Lorenzo Milani, Via Levido, Pieve di Bono-Prezzo, Comunità delle Giudicarie, Trento, Trentino-Alto Adige/Südtirol, 38085, Italia"
40,45.88854570000001,10.5989734,Biblioteca di Condino,"Biblioteca di Condino, Via Oreste Baratieri, Borgo Chiese, Comunità delle Giudicarie, Trento, Trentino-Alto Adige/Südtirol, 38083, Italia"
41,45.991769399999995,11.262596499999999,,"Bar Centrale, Via Roma, Costa di Brenta, Caldonazzo, Comunità Alta Valsugana e Bersntol, Trento, Trentino-Alto Adige/Südtirol, 38052, Italia"
42,46.3263779,10.875732600000001,,"Biblioteca Comunale, 12, Piazza Madonna della Pace, Dimaro Folgarida, Comunità della Valle di Sole, Trento, Trentino-Alto Adige/Südtirol, 38025, Italia"
43,45.7566501,11.005622,Biblioteca comunale,"Biblioteca comunale, 40, Via Roma, Ala, Comunità della Vallagarina, Trento, Trentino-Alto Adige/Südtirol, 38061, Italia"
44,46.0710611,11.4791396,Biblioteca Telve,"Biblioteca Telve, Piazzale Depero, Nale, Batistoti, Telve, Comunità Valsugana e Tesino, Trento, Trentino-Alto Adige/Südtirol, 38050, Italia"
45,46.194106500000004,11.136179199999999,Biblioteca Fondazione Edmund Mach,"Biblioteca Fondazione Edmund Mach, Via Edmund Mach, Grumino, San Michele all'Adige, Comunità Rotaliana-Königsberg, Trento, Trentino-Alto Adige/Südtirol, 38016, Italia"
46,46.34018579999999,11.0458903,,"Casa Sociale, Via Fratelli Carlo-Gioseffo Pinamonti, Ville d'Anaunia, Comunità della Val di Non, Trento, Trentino-Alto Adige/Südtirol, 38023, Italia"
47,46.1672907,11.110478500000001,,"Farmacia Nave San Rocco, Via 4 Novembre, Maso del Gusto, Terre d'Adige, Comunità Rotaliana-Königsberg, Trento, Trentino-Alto Adige/Südtirol, 38015, Italia"
48,45.85168970000001,10.975084599999999,Biblioteca Comunale,"Biblioteca Comunale, Via Scuole, Mori, Comunità della Vallagarina, Trento, Trentino-Alto Adige/Südtirol, 38065, Italia"
49,46.069733899999996,11.1208988,Archivio Storico del Comune di Trento,"Biblioteca comunale di Trento, Passaggio Giovanni Peterlongo, Centro storico Trento, Trento, Territorio Val d'Adige, Trento, Trentino-Alto Adige/Südtirol, 38122, Italia"
50,46.069734999999994,11.120922199999999,Biblioteca Comunale di Trento,"Biblioteca Comunale di Trento, 55, Via Roma, Centro storico Trento, Trento, Territorio Val d'Adige, Trento, Trentino-Alto Adige/Südtirol, 38122, Italia"
51,46.0648792,11.1534216,Biblioteca Comunale di Trento - Sede di Povo,"Biblioteca Comunale di Trento - Sede di Povo, 5, Via Don Tommaso Dallafior, Negrano, Pantè, Trento, Territorio Val d'Adige, Trento, Trentino-Alto Adige/Südtirol, 38123, Italia"
52,46.0508326,11.409800500000001,Biblioteca Comunale,"Biblioteca Comunale, 1, Piazza Achille De Giovanni, Maso Vazzena, Masetti, Roncegno Terme, Comunità Valsugana e Tesino, Trento, Trentino-Alto Adige/Südtirol, 38050, Italia"
53,46.0537073,11.4613911,Biblioteca comunale di Borgo Valsugana,"Biblioteca comunale di Borgo Valsugana, Via 24 Maggio, Crosetta, Cimondè, Borgo Valsugana, Comunità Valsugana e Tesino, Trento, Trentino-Alto Adige/Südtirol, 38051, Italia"
54,46.0603519,11.2388157,Biblioteca,"11, Piazza Giovanni Serra, Maso Kronst, Pergine Valsugana, Comunità Alta Valsugana e Bersntol, Trento, Trentino-Alto Adige/Südtirol, 38057, Italia"
55,46.0631384,11.632437800000002,Biblioteca comunale,"Biblioteca comunale, 18, Via Venezia, Castello Tesino, Comunità Valsugana e Tesino, Trento, Trentino-Alto Adige/Südtirol, 38053, Italia"
56,45.8775052,10.8893653,Biblioteca di Nago,"Biblioteca di Nago, Via Orti, Nago-Torbole, Comunità Alto Garda e Ledro, Trento, Trentino-Alto Adige/Südtirol, 38069, Italia"
57,45.7356753,10.9414725,,"2, Piazza Vittorio Emanuele III, Avio, Comunità della Vallagarina, Trento, Trentino-Alto Adige/Südtirol, 38063, Italia"
58,46.0675262,11.6052936,Biblioteca Comunale,"Centro Polifunzionale, Via Gilberto Buffa, Bosco Santa Maria, Longa, Pieve Tesino, Comunità Valsugana e Tesino, Trento, Trentino-Alto Adige/Südtirol, 38053, Italia"
59,46.155503499999995,11.805746699999998,Biblioteca,"Biblioteca, Via Pomaia, Cazzola, Mezzano, Comunità di Primiero, Trento, Trentino-Alto Adige/Südtirol, Italia"
60,46.151666799999994,11.097350099999998,,"Municipio di Terre d'Adige, Piazza Santi Filippo e Giacomo, Maso Gesuiti, Terre d'Adige, Comunità Rotaliana-Königsberg, Trento, Trentino-Alto Adige/Südtirol, 38015, Italia"
61,46.28892020000001,11.4619717,,"Hotel San Valier, 7, Via Guglielmo Marconi, Cavalese, Comunità territoriale della Val di Fiemme, Trento, Trentino-Alto Adige/Südtirol, 38033, Italia"
62,46.0054716,11.1997259,Biblioteca Comunale Altopiano Della Vigolana,"Biblioteca Comunale Altopiano Della Vigolana, Piazza Oreste Bailoni, Maso Stauderi, Altopiano della Vigolana, Comunità Alta Valsugana e Bersntol, Trento, Trentino-Alto Adige/Südtirol, 38034, Italia"
63,46.052453799999995,11.494067900000001,Punto cultura,"Punto cultura, Piazza del Municipio, Castelnuovo, Comunità Valsugana e Tesino, Trento, Trentino-Alto Adige/Südtirol, 38059, Italia"
64,46.126588299999995,11.1161227,Biblioteca di Meano,"Biblioteca di Meano, 26, Via delle Sugarine, Lamar, Trento, Territorio Val d'Adige, Trento, Trentino-Alto Adige/Südtirol, 38121, Italia"
65,46.0626921,11.115276699999999,Gino Tomasi,"Gino Tomasi, 3, Corso del Lavoro e della Scienza, Le Albere, Trento, Territorio Val d'Adige, Trento, Trentino-Alto Adige/Südtirol, 38122, Italia"
66,45.895636200000006,10.717652900000001,,"Cassa Rurale di Ledro, Via Cesare Battisti, Ledro, Comunità Alto Garda e Ledro, Trento, Trentino-Alto Adige/Südtirol, 38067, Italia"
67,46.01755870000001,10.9450448,,"Dro, Comunità Alto Garda e Ledro, Trento, Trentino-Alto Adige/Südtirol, 38096, Italia"
68,46.078637799999996,11.000492300000001,Biblioteca comunale Vallelaghi,"Biblioteca comunale Vallelaghi, Piazza San Valentino, Vallelaghi, Comunità della Valle dei Laghi, Trento, Trentino-Alto Adige/Südtirol, 38076, Italia"
69,46.0973843,11.045169300000001,,"10, Via di Braidon, Vallelaghi, Comunità della Valle dei Laghi, Trento, Trentino-Alto Adige/Südtirol, Italia"
